HORYU-4                 
1 41340U 16012D   20073.76896370  .00000467  00000-0  28562-4 0  9994
2 41340  31.0041 221.1123 0014118 279.4552  80.4488 15.01437401223481
E-ST@R-II               
1 41459U 16025D   20073.80471268  .00001563  00000-0  82472-4 0  9997
2 41459  98.0963 178.8876 0166205 173.0207 187.3374 15.06139734213047
AAUSAT 4                
1 41460U 16025E   20073.81938694  .00003266  00000-0  16267-3 0  9991
2 41460  98.0939 180.9038 0155823 163.0780 197.5727 15.08331635213226
DIWATA-1                
1 41463U 98067HT  20073.70563774  .00202178  30845-4  22435-3 0  9992
2 41463  51.6209 271.5761 0003107 256.8061 195.8258 16.09064785222584
BEESAT-4                
1 41619U 16040W   20073.88493524  .00001087  00000-0  48055-4 0  9999
2 41619  97.3316 135.6354 0012060 149.4227 210.7716 15.23754634194847
CANX-7                  
1 41788U 16059F   20073.82835506  .00003546  00000-0  50699-3 0  9998
2 41788  98.2515 159.3664 0028383 229.6864 130.1838 14.77048227185690
RAVAN                   
1 41849U 16067B   20073.72219390  .00000938  00000-0  83611-4 0  9994
2 41849  97.9261 182.0080 0008004 188.3736 171.7354 14.98480346182285
CELTEE 1                
1 41850U 16067C   20073.83104511  .00000461  00000-0  45196-4 0  9993
2 41850  97.9189 180.1226 0008543 197.5133 162.5794 14.97130894182193
OPTICUBE 04             
1 41851U 16067D   20073.87902670 -.00000224  00000-0 -14186-4 0  9994
2 41851  97.9179 179.8411 0008428 201.9321 158.1540 14.96889243182182
AEROCUBE 8D             
1 41852U 16067E   20073.82673390  .00000387  00000-0  39089-4 0  9991
2 41852  97.9187 179.6184 0009336 201.1752 158.9083 14.96851833182157
AEROCUBE 8C             
1 41853U 16067F   20073.85604346  .00000094  00000-0  13482-4 0  9994
2 41853  97.9195 179.5618 0009285 202.0217 158.0606 14.96823986182157
PROMETHEUS 2-1          
1 41854U 16067G   20073.77835041  .00000979  00000-0  90072-4 0  9996
2 41854  97.9203 179.7531 0009754 200.3007 159.7827 14.97112465182150
PROMETHEUS 2-3          
1 41855U 16067H   20073.77942438  .00000960  00000-0  88359-4 0  9991
2 41855  97.9206 179.7820 0009906 200.7803 159.3017 14.97122487182154
INS-1B                  
1 41954U 17008G   20073.72336238  .00001076  00000-0  46591-4 0  9998
2 41954  97.3653 139.7990 0007382 279.9055  80.1349 15.24538490170782
BGUSAT                  
1 41999U 17008BD  20073.16313010  .00001770  00000-0  69338-4 0  9993
2 41999  97.3754 142.8731 0006338 294.8081  65.2498 15.27094836170251
DIDO-2                  
1 42000U 17008BE  20073.73521772  .00000717  00000-0  32188-4 0  9999
2 42000  97.3662 140.3450 0006971 303.7040  56.3533 15.24317653170187
PEASSS                  
1 42015U 17008BV  20073.71668414  .00000953  00000-0  40566-4 0  9999
2 42015  97.3680 141.7402 0004912 311.4498  48.6318 15.25398459170753
AL-FARABI 1             
1 42016U 17008BW  20073.72319125  .00001260  00000-0  51523-4 0  9990
2 42016  97.3706 142.6398 0004736 310.2192  49.8631 15.26178069170923
NAYIF-1 (EO-88)         
1 42017U 17008BX  20073.76996802  .00001239  00000-0  50648-4 0  9991
2 42017  97.3700 142.6975 0004755 309.5363  50.5455 15.26216175170958
NSIGHT                  
1 42726U 98067MF  20073.61083698  .00136278  18331-4  36478-3 0  9992
2 42726  51.6290 357.2121 0005346 148.2214 211.9117 15.94200856160310
UCLSAT                  
1 42765U 17036A   20073.71845615  .00001039  00000-0  46648-4 0  9995
2 42765  97.3140 130.4776 0011497  12.3835 347.7682 15.23303548152001
LITUANICASAT-2          
1 42768U 17036D   20073.72522767  .00001667  00000-0  72187-4 0  9993
2 42768  97.3191 130.3207 0014490   0.3968 359.7278 15.23697868151260
AALTO-1                 
1 42775U 17036L   20073.77911220  .00000622  00000-0  30445-4 0  9993
2 42775  97.3119 128.6172 0013798   3.0996 357.0324 15.21697864151122
URSA MAIOR              
1 42776U 17036M   20073.71369840  .00000699  00000-0  33674-4 0  9994
2 42776  97.3130 128.7982 0013607   3.2453 356.8869 15.21864875151124
COMPASS 2               
1 42777U 17036N   20073.74047479  .00001312  00000-0  57610-4 0  9998
2 42777  97.3182 130.7837 0012149   2.8819 357.2486 15.23624128151223
DIAMOND RED             
1 42783U 17036U   20073.86788908  .00000756  00000-0  35398-4 0  9997
2 42783  97.3140 129.9866 0012207  13.1117 347.0434 15.22652148151207
PEGASUS                 
1 42784U 17036V   20073.72456784  .00000918  00000-0  41914-4 0  9998
2 42784  97.3145 130.2102 0012081  12.7541 347.3999 15.23006537151202
DIAMOND GREEN           
1 42785U 17036W   20073.73522844  .00000706  00000-0  33251-4 0  9991
2 42785  97.3143 129.8898 0012143  14.3196 345.8382 15.22652074151256
DIAMOND BLUE            
1 42786U 17036X   20073.73446747  .00000804  00000-0  37433-4 0  9994
2 42786  97.3142 129.8851 0012005  14.5426 345.6154 15.22652019151254
NUDTSAT                 
1 42787U 17036Y   20073.92627866  .00001478  00000-0  63400-4 0  9990
2 42787  97.3199 131.5899 0012935   5.1819 354.9549 15.24216722151141
SUCHAI                  
1 42788U 17036Z   20073.84782946  .00001058  00000-0  47153-4 0  9994
2 42788  97.3151 130.8335 0011555  11.2307 348.9186 15.23516301151329
SKCUBE                  
1 42789U 17036AA  20073.88451049  .00000966  00000-0  43487-4 0  9999
2 42789  97.3146 130.7497 0011436  11.4664 348.6831 15.23375653151246
VZLUSAT-1               
1 42790U 17036AB  20073.78330130  .00001407  00000-0  60545-4 0  9992
2 42790  97.3169 131.4472 0010896  10.3625 349.7835 15.24204803151276
ROBUSTA-1B              
1 42792U 17036AD  20073.71863366  .00001070  00000-0  47600-4 0  9992
2 42792  97.3148 130.8099 0011051  12.8898 347.2620 15.23560656151248
CICERO 6                
1 42793U 17036AE  20073.86386046  .00000664  00000-0  31158-4 0  9993
2 42793  97.3127 130.4760 0010462  15.2297 344.9253 15.22977667151319
D-SAT                   
1 42794U 17036AF  20073.62435992  .00000125  00000-0  16420-4 0  9990
2 42794  97.5062 110.9631 0125275 325.4442  33.8679 14.91233147148413
CORVUS BC2              
1 42846U 17042X   20073.81069335  .00000025  00000-0  76709-5 0  9996
2 42846  97.5367 321.6046 0008274 231.9652 128.0821 14.92069948145143
CORVUS BC1              
1 42847U 17042Y   20073.74580430  .00000056  00000-0  10724-4 0  9991
2 42847  97.5370 321.6948 0007933 231.1631 128.8881 14.92170879145138
MIRATA                  
1 43015U 17073C   20073.84516765  .00001302  00000-0  10597-3 0  9996
2 43015  97.7221 349.6869 0254079   0.7746 359.3809 14.79471701125083
MAKERSAT 0              
1 43016U 17073D   20073.71223800  .00000991  00000-0  81982-4 0  9998
2 43016  97.7256 349.7541 0256649   2.0343 358.1850 14.79087981125056
ASTERIA                 
1 43020U 98067NH  20073.75928930  .00148777  19571-4  41733-3 0  9996
2 43020  51.6427   9.1923 0001961 147.7154 212.3974 15.93302157132354
DELLINGR (RBLE)         
1 43021U 98067NJ  20073.73613543  .00014448  00000-0  13171-3 0  9991
2 43021  51.6372  48.1183 0002726  62.9855 297.1419 15.68171607131834
AEROCUBE 7B (OCSD B)    
1 43042U 17071F   20073.72414844  .00003014  00000-0  76812-4 0  9991
2 43042  51.6372 176.0683 0004848  58.4890 301.6569 15.42901286127590
AEROCUBE 7C (OCSD C)    
1 43043U 17071G   20073.72597699  .00003056  00000-0  77812-4 0  9999
2 43043  51.6372 176.0951 0005087  62.3952 297.7550 15.42878752127561
CHEFSAT                 
1 43044U 17071H   20073.66744658  .00006910  00000-0  14316-3 0  9993
2 43044  51.6380 164.6835 0004681  62.7860 297.3604 15.46945074127715
ASGARDIA 1              
1 43049U 17071N   20073.72314413  .00002883  00000-0  73718-4 0  9994
2 43049  51.6384 175.3876 0002774  77.8582 282.2715 15.42958943127572
ISARA                   
1 43050U 17071P   20073.72279663  .00006387  00000-0  13657-3 0  9991
2 43050  51.6361 166.4574 0002537  73.6173 286.5093 15.46158173127681
PROPCUBE 2 (FAUNA)      
1 43052U 17071R   20073.67112073  .00003652  00000-0  89728-4 0  9993
2 43052  51.6378 174.3092 0002714  74.0501 286.0784 15.43357486127576
CORVUS BC3              
1 43118U 18004H   20073.84913006  .00000602  00000-0  28410-4 0  9990
2 43118  97.4534 144.8664 0011194  36.1626 324.0365 15.23216640120448
MICROMAS-2A             
1 43131U 18004W   20073.72556446  .00001604  00000-0  67260-4 0  9992
2 43131  97.4574 146.1523 0010009  37.1687 323.0241 15.24946268120504
SPACEBEE-4              
1 43139U 18004AE  20073.83589517  .00002077  00000-0  83365-4 0  9996
2 43139  97.4599 147.2248 0009292  39.1992 320.9917 15.26093706120573
SPACEBEE-3              
1 43140U 18004AF  20073.70189515  .00002906  00000-0  11282-3 0  9997
2 43140  97.4613 147.6352 0008932  39.1248 321.0635 15.26873617120583
SPACEBEE-2              
1 43141U 18004AG  20073.89600794  .00002853  00000-0  10993-3 0  9994
2 43141  97.4622 148.0299 0008856  37.9462 322.2400 15.27141227120622
SPACEBEE-1              
1 43142U 18004AH  20073.75347972  .00003152  00000-0  12008-3 0  9998
2 43142  97.4626 148.0949 0008831  38.4288 321.7578 15.27445471120600
CICERO 7                
1 43143U 18004AJ  20073.73027677  .00001434  00000-0  60325-4 0  9991
2 43143  97.4555 146.3563 0008457  47.3441 312.8508 15.25019196120523
GOMX-4B                 
1 43196U 18015E   20073.89681579  .00000284  00000-0  14574-4 0  9992
2 43196  97.4216 203.2620 0020403  81.5082 278.8462 15.24169756117341
GOMX-4A                 
1 43197U 18015F   20073.87392943  .00000439  00000-0  20786-4 0  9999
2 43197  97.4211 203.3010 0020906  82.5579  16.1585 15.24361867117358
1KUNS-PF                
1 43466U 98067NP  20073.90298985  .00069228  00000-0  31372-3 0  9991
2 43466  51.6313  34.7388 0003373 103.8326 256.3052 15.83272223105280
UBAKUSAT                
1 43467U 98067NQ  20073.49254031  .00025094  00000-0  20294-3 0  9994
2 43467  51.6346  53.9105 0002512  49.3448 310.7768 15.70655233105001
